FLOCK 4G-14             
1 62667U 25009BL  26068.75869712  .00011310  00000+0  42676-3 0  9993
2 62667  97.4064 151.1836 0003006 318.3639  41.7371 15.27197201 63711
STARLINK-35859          
1 67185U 25303Y   26068.06565655  .00037802  00000+0  13759-2 0  9996
2 67185  43.0016 313.8994 0001659 262.5678  97.4985 15.27586117 12645
